{"type":"FeatureCollection","attribution":"© OpenStreetMap contributors · ODbL 1.0","accessed":"2026-09-22","features":[{"type":"Feature","properties":{"name":"울릉도","osm_ways":["456181726","960180800","960180799","960147595"]},"geometry":{"type":"Polygon","coordinates":[[[130.9150627,37.5001273],[130.9151989,37.5002855],[130.9153309,37.5006785],[130.9152907,37.5016701],[130.9154087,37.5019893],[130.9151935,37.5034092],[130.9151441,37.5034819],[130.9147516,37.5039043],[130.9147596,37.5043214],[130.9144673,37.5053236],[130.9139382,37.5058307],[130.9136975,37.50618],[130.9136711,37.5064174],[130.9137773,37.5070435],[130.9137827,37.5073882],[130.9139872,37.5076992],[130.914077,37.5076322],[130.9142983,37.5076705],[130.9143881,37.507579],[130.9143868,37.5074216],[130.9144431,37.507279],[130.9144914,37.507295],[130.9145182,37.5073588],[130.9144753,37.5074428],[130.9145088,37.507513],[130.9145169,37.5075875],[130.9145732,37.5076705],[130.9146175,37.5077599],[130.9146403,37.5078471],[130.9146242,37.5079769],[130.9149682,37.5082223],[130.9151453,37.5081308],[130.915447,37.5082425],[130.9154429,37.5085754],[130.9156817,37.5088138],[130.9159373,37.5088624],[130.9164971,37.5094138],[130.9167438,37.5096393],[130.9165185,37.5096606],[130.9166478,37.5097469],[130.9164434,37.5098223],[130.9163951,37.5099074],[130.9165561,37.510167],[130.9165453,37.5102861],[130.9166687,37.5104563],[130.9168994,37.5103287],[130.9171623,37.5104393],[130.9172159,37.5106393],[130.9176343,37.5109031],[130.9175217,37.5109329],[130.9169316,37.5107627],[130.916894,37.5109074],[130.9168196,37.5111063],[130.917055,37.5113201],[130.9171936,37.5113541],[130.917149,37.5114091],[130.917011,37.5113704],[130.9170136,37.5113986],[130.9172668,37.5114776],[130.9175834,37.5115776],[130.9179214,37.5118137],[130.9178463,37.5118648],[130.9176318,37.511798],[130.9172616,37.5116506],[130.9174399,37.5117712],[130.917511,37.5118832],[130.9170308,37.5116137],[130.9172896,37.5118669],[130.9172749,37.5119669],[130.9177201,37.5123222],[130.9177282,37.5123988],[130.9173795,37.5122329],[130.9174305,37.5123627],[130.9175431,37.5125286],[130.9177148,37.5127031],[130.9173742,37.5125052],[130.9170255,37.5125882],[130.9171354,37.5126637],[130.9172488,37.5126426],[130.9171877,37.5125717],[130.9174445,37.5126002],[130.917417,37.5126754],[130.9176021,37.5132094],[130.9175807,37.513452],[130.9177953,37.5136094],[130.917924,37.5137754],[130.9179186,37.5139583],[130.9177845,37.5141413],[130.9174573,37.5143285],[130.9171735,37.5141106],[130.916894,37.5139966],[130.9167599,37.5140902],[130.91639,37.51463],[130.9161216,37.5148944],[130.915848,37.5152391],[130.915966,37.5153455],[130.9163147,37.5154008],[130.9164005,37.5155242],[130.9163844,37.5157412],[130.9161377,37.5157071],[130.9159016,37.5157922],[130.9159499,37.5160178],[130.9162235,37.5160943],[130.9162342,37.5161624],[130.9160196,37.5161071],[130.9159714,37.5161369],[130.9160626,37.5161837],[130.9163415,37.5163879],[130.9169316,37.5164986],[130.9170281,37.5167454],[130.9167653,37.5169751],[130.9164649,37.5170943],[130.9161305,37.5170938],[130.9157621,37.5169411],[130.9156388,37.5169964],[130.9152901,37.5175027],[130.9156066,37.5176729],[130.9162449,37.5178601],[130.9165561,37.5185409],[130.9165185,37.5187451],[130.9163361,37.518809],[130.9157514,37.5186813],[130.9154135,37.5185281],[130.9150862,37.5183324],[130.914995,37.517975],[130.9148663,37.5178261],[130.9144203,37.5179705],[130.9142301,37.5181301],[130.9139865,37.5180133],[130.9133008,37.5185789],[130.9135377,37.518948],[130.9131277,37.518929],[130.9128868,37.5191068],[130.9127473,37.5192472],[130.913096,37.519545],[130.9132726,37.51998],[130.9133964,37.5204088],[130.913214,37.5205151],[130.9128654,37.52043],[130.9124738,37.5204343],[130.9121412,37.5205024],[130.9118622,37.5204641],[130.9116446,37.5203865],[130.9112287,37.5208624],[130.9107571,37.5210512],[130.9104299,37.5212895],[130.9103119,37.5215235],[130.9106063,37.5215313],[130.9105908,37.5217617],[130.9103226,37.5217703],[130.9104514,37.5227956],[130.9105265,37.5232381],[130.9101939,37.5235146],[130.9095931,37.5237146],[130.9092766,37.5241613],[130.9092176,37.5244549],[130.9093409,37.524774],[130.9090673,37.525327],[130.908783,37.5256887],[130.9084934,37.5260035],[130.9087616,37.5264842],[130.9084343,37.5264289],[130.9081876,37.5266714],[130.9078764,37.5272841],[130.9080374,37.5275521],[130.9081018,37.5283902],[130.9084719,37.5288666],[130.9086865,37.52899],[130.9088796,37.5292538],[130.9089459,37.5293481],[130.9090191,37.5294707],[130.9089679,37.5295044],[130.9085899,37.5291815],[130.9084665,37.5290794],[130.9083539,37.5292283],[130.9091156,37.5299472],[130.9094321,37.5304492],[130.9095394,37.530781],[130.9093141,37.5309001],[130.9087508,37.5311043],[130.9087455,37.5314447],[130.9089708,37.5315851],[130.9092122,37.5316999],[130.9094059,37.5320274],[130.9097108,37.5324541],[130.9101687,37.5328574],[130.9101931,37.5331075],[130.9103421,37.5331874],[130.9106069,37.5333292],[130.9106713,37.5334696],[130.9107732,37.5339035],[130.9106391,37.5341417],[130.9105943,37.5343281],[130.9106016,37.5345799],[130.9104675,37.5347755],[130.9103924,37.5348606],[130.9109181,37.5350308],[130.9116047,37.5354306],[130.9117978,37.5354264],[130.9122055,37.5358305],[130.9121197,37.5360347],[130.9122055,37.5362857],[130.9119963,37.5364813],[130.9110039,37.5367408],[130.9110736,37.536996],[130.9114492,37.5372938],[130.9114813,37.537566],[130.911948,37.5379957],[130.9121753,37.5381345],[130.9122753,37.5381956],[130.9127849,37.5383062],[130.9127974,37.5381179],[130.9128099,37.5379299],[130.9130263,37.5379299],[130.912978,37.5383487],[130.9135359,37.5384976],[130.9140348,37.5387571],[130.9147751,37.5390931],[130.9151399,37.5391399],[130.9153813,37.5393909],[130.9157514,37.5397567],[130.9161484,37.5400587],[130.9163683,37.5402118],[130.9166795,37.5403054],[130.9170121,37.5402756],[130.917114,37.5401353],[130.9175539,37.5400077],[130.9179884,37.540063],[130.9183907,37.5401693],[130.9187072,37.5400927],[130.9194046,37.5403182],[130.9195642,37.5408244],[130.919469,37.5411263],[130.9191364,37.5413901],[130.9190183,37.5416921],[130.9186589,37.541977],[130.9182512,37.5421302],[130.9181446,37.5422998],[130.9180725,37.5421932],[130.9181077,37.5421079],[130.9179588,37.5420005],[130.9177845,37.5420366],[130.9173822,37.541909],[130.9170496,37.5416878],[130.9168082,37.5415857],[130.9164971,37.541624],[130.9154027,37.5417388],[130.9151774,37.541641],[130.9149521,37.5416708],[130.9143674,37.5418512],[130.9140938,37.5419388],[130.9135949,37.5418367],[130.9132201,37.54178],[130.912919,37.5419217],[130.913037,37.5420664],[130.9129458,37.5421599],[130.9126428,37.5419916],[130.9124098,37.5419508],[130.9123128,37.5417814],[130.9124417,37.5416755],[130.9122373,37.5414415],[130.9117755,37.5413278],[130.9113848,37.5413645],[130.9105265,37.5415985],[130.9103173,37.5418579],[130.9100759,37.5421557],[130.9096199,37.542798],[130.9094536,37.5431552],[130.9092122,37.5433254],[130.9088903,37.5438103],[130.9085416,37.5440442],[130.9084451,37.5443632],[130.908488,37.5447035],[130.9086114,37.5446567],[130.9088379,37.5447328],[130.9089894,37.544622],[130.9091425,37.5448523],[130.9089869,37.5448779],[130.9088903,37.5448481],[130.9087153,37.5449654],[130.9086963,37.5449781],[130.9087077,37.5449971],[130.9089011,37.5453202],[130.9089976,37.5455967],[130.9091371,37.5459327],[130.909121,37.5462517],[130.9090298,37.5464346],[130.9089976,37.5465026],[130.9089011,37.5467068],[130.9089011,37.5468982],[130.9087187,37.5472937],[130.9082685,37.5478392],[130.9078908,37.5481425],[130.9075066,37.5484651],[130.907458,37.5485059],[130.9068089,37.5486717],[130.9063154,37.5487738],[130.9059667,37.5490035],[130.9055483,37.5491055],[130.9049958,37.5490715],[130.9044969,37.5489992],[130.9036171,37.5490205],[130.902924,37.5491021],[130.9022116,37.54879],[130.9015808,37.548579],[130.9004972,37.5483451],[130.8999479,37.5480567],[130.8993224,37.5476017],[130.8988428,37.5470564],[130.8977838,37.546643],[130.8977216,37.5467595],[130.8972453,37.546222],[130.8966842,37.5459726],[130.8961069,37.544928],[130.8958073,37.5447236],[130.895431,37.5442952],[130.8951306,37.5436061],[130.894857,37.5433977],[130.89468,37.5426916],[130.8936817,37.5418674],[130.8932852,37.5417729],[130.8931629,37.5417191],[130.8930653,37.5418197],[130.8927575,37.5420631],[130.8926372,37.5419925],[130.8926576,37.5418792],[130.8929617,37.5416148],[130.8930571,37.5415727],[130.8928668,37.5413646],[130.8923572,37.5411349],[130.8913648,37.5409434],[130.8903248,37.540866],[130.8895784,37.540969],[130.8886899,37.5411499],[130.8883736,37.5414195],[130.8880388,37.5416963],[130.8879906,37.5418877],[130.8877758,37.5421823],[130.8876097,37.5423088],[130.8870142,37.542547],[130.8869391,37.5426448],[130.8866924,37.5425555],[130.8863383,37.542598],[130.8860433,37.5426916],[130.8856839,37.542581],[130.8852676,37.542395],[130.8846271,37.5423088],[130.8845502,37.5423142],[130.8840262,37.5423513],[130.8836615,37.5424194],[130.8831679,37.5426406],[130.8826154,37.5427724],[130.8822569,37.5428203],[130.8821879,37.5428295],[130.8815479,37.5430599],[130.8814621,37.543134],[130.8807164,37.5432743],[130.8806735,37.5433764],[130.8804911,37.5433296],[130.8803087,37.5434105],[130.8802819,37.5434572],[130.8800298,37.543453],[130.8798152,37.5433467],[130.8786243,37.5432446],[130.8782112,37.5432701],[130.8778303,37.5432701],[130.8775782,37.5431595],[130.8774173,37.5431638],[130.8772993,37.5430829],[130.8766327,37.5430756],[130.8757007,37.543185],[130.8756082,37.5431577],[130.8753486,37.5430812],[130.8750999,37.5429638],[130.8746761,37.5427362],[130.8740699,37.5431127],[130.8738499,37.5429766],[130.8741931,37.5427607],[130.8740377,37.5426767],[130.8740216,37.5423534],[130.87341,37.5419238],[130.8733541,37.5418747],[130.8730131,37.541575],[130.87282,37.5413283],[130.872553,37.5413655],[130.8726966,37.5414865],[130.8728585,37.5414817],[130.8728374,37.5415415],[130.8727347,37.5415502],[130.8726808,37.5415815],[130.8724725,37.541379],[130.8723899,37.5413921],[130.8725268,37.5414857],[130.8725121,37.5415763],[130.8718995,37.5413253],[130.8718758,37.5413156],[130.871275,37.5406882],[130.8712015,37.5406775],[130.8706903,37.5406032],[130.8705984,37.5405968],[130.8692714,37.5405027],[130.8692132,37.540216],[130.8694329,37.5400621],[130.869604,37.5400829],[130.8696576,37.5401747],[130.8700228,37.5402047],[130.8701163,37.5403054],[130.8713526,37.5403691],[130.8722406,37.5411625],[130.8728361,37.5410434],[130.8725786,37.5405755],[130.8724713,37.5405329],[130.8722353,37.5400502],[130.8712399,37.5400101],[130.8706688,37.5398886],[130.870524,37.5396504],[130.8704435,37.5394419],[130.8700519,37.5393313],[130.8698374,37.5393143],[130.8693599,37.538991],[130.8689951,37.5386422],[130.8687162,37.5382254],[130.868389,37.5379404],[130.8678418,37.5374597],[130.8675146,37.5369918],[130.8671228,37.5367333],[130.8662325,37.5364431],[130.8652256,37.5364411],[130.86443,37.5363112],[130.8637541,37.5361113],[130.8632284,37.5359071],[130.8626759,37.5359368],[130.8620214,37.5359751],[130.8615922,37.5358901],[130.8609861,37.5355795],[130.8604121,37.5352647],[130.8599293,37.5350308],[130.8587277,37.5349287],[130.8584755,37.5349712],[130.8581054,37.5348053],[130.8578854,37.5347202],[130.8577835,37.5347202],[130.8574348,37.5347202],[130.8571773,37.5346522],[130.857157,37.5345463],[130.8565819,37.5345969],[130.8562332,37.5346692],[130.8565497,37.5349882],[130.8564478,37.5350308],[130.8560723,37.5347883],[130.8559596,37.5345969],[130.8557236,37.5346437],[130.8552193,37.5345884],[130.8550101,37.5346564],[130.8546775,37.5346224],[130.8541992,37.5344067],[130.8537173,37.534431],[130.8531594,37.5345799],[130.8525103,37.5345373],[130.8520007,37.5344225],[130.8513033,37.534482],[130.8504839,37.5344248],[130.8501008,37.5345087],[130.8498495,37.534682],[130.8494365,37.5346309],[130.8488464,37.5348436],[130.8482241,37.5351754],[130.8477471,37.5353723],[130.8462393,37.5354391],[130.8454614,37.5353796],[130.844807,37.5352265],[130.8445173,37.5350946],[130.8444958,37.5349755],[130.8442705,37.5348691],[130.8440935,37.5347415],[130.8432942,37.534682],[130.8432218,37.5347331],[130.8432138,37.535052],[130.8431118,37.5351031],[130.8430099,37.5350095],[130.8429992,37.5346841],[130.8429348,37.5346352],[130.8420392,37.5343952],[130.8417761,37.5343246],[130.8410036,37.5340311],[130.8401936,37.5335419],[130.8398932,37.5331463],[130.8398473,37.5330864],[130.8393138,37.5323891],[130.8388686,37.5321466],[130.8381658,37.532019],[130.8376723,37.5318488],[130.8371627,37.5316701],[130.8364009,37.5313936],[130.8358645,37.5310958],[130.8351564,37.5308066],[130.8345019,37.5305768],[130.8342659,37.5304322],[130.8339279,37.530279],[130.8335471,37.5299812],[130.833016,37.5297856],[130.8323562,37.5296111],[130.8319377,37.5294112],[130.8315461,37.5291091],[130.8311867,37.5289049],[130.8309882,37.5287943],[130.8307147,37.5289092],[130.8306752,37.5289718],[130.8305859,37.5291134],[130.828749,37.5306151],[130.8283937,37.5306808],[130.8281447,37.530485],[130.8281827,37.5302663],[130.8284562,37.530028],[130.8286225,37.5301259],[130.8301729,37.5288666],[130.8303391,37.5288666],[130.8305532,37.5286823],[130.8300343,37.5280914],[130.8304594,37.5278523],[130.8304679,37.5277648],[130.8304947,37.5275734],[130.8301192,37.5272075],[130.8299851,37.527267],[130.8296579,37.5271309],[130.829674,37.5269565],[130.8286279,37.5266672],[130.8277712,37.5263601],[130.8273753,37.5266459],[130.8268372,37.52666],[130.8264971,37.5266689],[130.8263442,37.5266633],[130.8239877,37.5266863],[130.822491,37.5274202],[130.8226895,37.5277052],[130.822609,37.5277946],[130.8234888,37.5291772],[130.8238858,37.5294282],[130.824168,37.5294942],[130.8243042,37.5295261],[130.825548,37.5294824],[130.8267236,37.529441],[130.8267383,37.5287561],[130.8268637,37.5287667],[130.8269247,37.5294283],[130.8273512,37.529424],[130.8274102,37.5292495],[130.8274299,37.5292423],[130.8277115,37.529121],[130.8279157,37.52923],[130.827952,37.5294537],[130.827732,37.5296514],[130.8254771,37.5297491],[130.8254326,37.529826],[130.8242344,37.5298749],[130.823952,37.529806],[130.8234954,37.529579],[130.8231701,37.5292472],[130.8226755,37.5284288],[130.8226037,37.5283136],[130.822224,37.5276365],[130.8219114,37.527079],[130.8213216,37.527016],[130.8209031,37.5268884],[130.8198356,37.5265736],[130.8191597,37.5264247],[130.8185106,37.5262545],[130.8180707,37.5260971],[130.817248,37.5257933],[130.817162,37.5257615],[130.8166223,37.5253526],[130.8158445,37.5247399],[130.8154046,37.5242975],[130.8150184,37.5237997],[130.8148843,37.5235827],[130.8146429,37.5234593],[130.8145079,37.5234987],[130.8142063,37.5236802],[130.8140704,37.5235715],[130.8141132,37.5234775],[130.8142357,37.5235142],[130.8144068,37.5234253],[130.8145088,37.5233402],[130.8141011,37.5228424],[130.8134305,37.522417],[130.8131676,37.5223489],[130.8126795,37.5220893],[130.8123254,37.521966],[130.8118748,37.5218809],[130.8115851,37.5218213],[130.8112365,37.5218213],[130.809938,37.5216623],[130.8089512,37.5216384],[130.8078569,37.5217192],[130.8070844,37.5217532],[130.8060759,37.5216043],[130.8053624,37.5213065],[130.8047562,37.5208555],[130.8040428,37.5202428],[130.8038872,37.5198854],[130.8035278,37.5194387],[130.8028036,37.5191366],[130.8020418,37.5189451],[130.8013069,37.5189068],[130.8003842,37.519026],[130.8000485,37.5190747],[130.7997673,37.5190813],[130.7992363,37.5191919],[130.7986515,37.5193323],[130.7982975,37.5196089],[130.797536,37.5197982],[130.7967686,37.5199535],[130.7963287,37.5200769],[130.7960015,37.5204513],[130.7956904,37.5209193],[130.7956367,37.5217788],[130.7954061,37.5220936],[130.7955026,37.5223446],[130.7958191,37.522485],[130.7961571,37.5227914],[130.7963931,37.5230551],[130.7964843,37.5233147],[130.7963877,37.5234636],[130.7960458,37.5235178],[130.7952626,37.5232413],[130.7947851,37.5231732],[130.7942648,37.5230498],[130.7935191,37.5230328],[130.7932509,37.5231562],[130.7929183,37.5230924],[130.7928861,37.5228754],[130.7931329,37.5226754],[130.7939536,37.5224712],[130.7938946,37.5222712],[130.7940234,37.5221351],[130.7940556,37.521867],[130.7946634,37.5216747],[130.7945073,37.5214087],[130.7947565,37.5210867],[130.7942097,37.5206523],[130.7944566,37.5200239],[130.7935896,37.5197945],[130.793641,37.519202],[130.7932254,37.5190127],[130.7933053,37.5187853],[130.7935631,37.5187089],[130.7931704,37.5186675],[130.7928538,37.51876],[130.792516,37.5186055],[130.7926511,37.518436],[130.7917811,37.5184462],[130.7916201,37.5183611],[130.791545,37.5182122],[130.7917596,37.5181441],[130.7919903,37.5181016],[130.7926734,37.5179416],[130.7922359,37.5178148],[130.7923009,37.5174634],[130.7923942,37.5172271],[130.7923963,37.5169195],[130.7930966,37.5168461],[130.7925106,37.5166989],[130.7926223,37.5164749],[130.7929494,37.5164284],[130.7926666,37.5163527],[130.7927306,37.5162039],[130.7929934,37.5162082],[130.7932202,37.5162305],[130.7935245,37.5162297],[130.793404,37.516062],[130.7932348,37.5160039],[130.7930471,37.5158976],[130.7932831,37.5157614],[130.7935567,37.5157146],[130.7940127,37.5157188],[130.7941092,37.5155018],[130.7934387,37.5154465],[130.7934333,37.5153359],[130.7934333,37.5152082],[130.7934655,37.5149998],[130.7931543,37.5149232],[130.7931865,37.5146934],[130.793326,37.5146125],[130.7933153,37.5145402],[130.7930846,37.5145828],[130.7929237,37.5145147],[130.792988,37.5144083],[130.793444,37.5143445],[130.7933904,37.5142338],[130.7935942,37.5141785],[130.7937552,37.5141955],[130.7940287,37.5142211],[130.7938249,37.5140679],[130.7935996,37.513987],[130.7932026,37.5139275],[130.792972,37.5139062],[130.792929,37.5137062],[130.7933099,37.5135062],[130.7939483,37.5132552],[130.7942809,37.5132679],[130.7945706,37.5134892],[130.7946832,37.5137998],[130.7951124,37.5137998],[130.7952143,37.5137232],[130.7953859,37.5137232],[130.7955415,37.5136041],[130.7958258,37.5137062],[130.7964803,37.5132892],[130.797065,37.5129148],[130.7973815,37.5126977],[130.797757,37.512068],[130.7977785,37.5119276],[130.7975478,37.5118935],[130.7975317,37.5118297],[130.7976229,37.5118127],[130.7979823,37.5118254],[130.7981003,37.5115957],[130.7981111,37.5112765],[130.7980306,37.5110552],[130.7978375,37.5110169],[130.7977677,37.5109361],[130.797875,37.5108425],[130.7979448,37.5108935],[130.7981969,37.5109106],[130.7982774,37.5106638],[130.7977034,37.5103843],[130.7975746,37.5104638],[130.7973654,37.510685],[130.7973493,37.5107616],[130.7971079,37.5109744],[130.7969684,37.5109914],[130.7967431,37.5108255],[130.7968182,37.5106765],[130.7973118,37.5100467],[130.7975639,37.5099574],[130.7980091,37.5100272],[130.7980556,37.5101668],[130.7988728,37.5099744],[130.7991035,37.5099106],[130.7990767,37.5098255],[130.7991732,37.5097404],[130.799184,37.5095446],[130.7994253,37.5095233],[130.7997687,37.5094765],[130.8000208,37.5094042],[130.8002944,37.5092297],[130.8003641,37.5089446],[130.8002944,37.5087701],[130.800053,37.5084723],[130.7999135,37.508234],[130.7997311,37.5080595],[130.7994468,37.5079318],[130.7996185,37.507851],[130.8000369,37.5078382],[130.8002676,37.5078893],[130.800466,37.5077488],[130.8004982,37.5074169],[130.8006538,37.5072169],[130.8010347,37.5069871],[130.8013136,37.5069105],[130.8013458,37.5067616],[130.8012975,37.5065531],[130.8012332,37.5065105],[130.8013726,37.506336],[130.8013673,37.5062467],[130.8012707,37.5062126],[130.8013887,37.5061403],[130.8016891,37.5060552],[130.8016838,37.5061318],[130.8018286,37.5061488],[130.8020396,37.5062677],[130.8022148,37.5063318],[130.8024616,37.5062467],[130.8028381,37.5060986],[130.8033097,37.5058673],[130.8036442,37.5056505],[130.8039315,37.5053658],[130.8042962,37.5048593],[130.8048695,37.5039713],[130.8049169,37.5038644],[130.8050097,37.5033231],[130.80494,37.5026932],[130.8048595,37.502574],[130.8045484,37.5025357],[130.8040978,37.502574],[130.8039046,37.5024677],[130.8039046,37.5024208],[130.8041139,37.5023527],[130.8037383,37.5022847],[130.8036042,37.5022336],[130.8036579,37.5021314],[130.8039476,37.5020974],[130.803572,37.5018378],[130.8033306,37.5014718],[130.8031697,37.5013952],[130.8029927,37.5014888],[130.8027352,37.5016037],[130.8023543,37.5015612],[130.8021558,37.5015144],[130.8022202,37.5014335],[130.802526,37.5012633],[130.8023972,37.5011909],[130.8020754,37.5012079],[130.8019627,37.5012122],[130.8018501,37.5010377],[130.8016891,37.50091],[130.8015818,37.5008249],[130.8015658,37.5007143],[130.8020754,37.5006632],[130.8021129,37.5005696],[130.8023758,37.5005483],[130.8025957,37.5004419],[130.8028639,37.5003738],[130.8029015,37.5002844],[130.8031375,37.5002887],[130.803336,37.5001951],[130.8034862,37.5001653],[130.8034165,37.5000121],[130.8036203,37.499995],[130.8039476,37.5000035],[130.8042225,37.5000759],[130.8046704,37.4995365],[130.8047777,37.4990938],[130.8041769,37.4988981],[130.8044236,37.4988129],[130.8048206,37.4988129],[130.8044773,37.498515],[130.8049279,37.4984725],[130.8049386,37.4982086],[130.8042842,37.4975872],[130.8037155,37.4973148],[130.8035576,37.4971649],[130.8033508,37.4970425],[130.8034862,37.4968096],[130.8036009,37.4966886],[130.8034672,37.4962988],[130.8033722,37.4959784],[130.8035104,37.4958834],[130.8030933,37.4957486],[130.8033293,37.4956294],[130.803354,37.4955448],[130.8035612,37.4955452],[130.8035096,37.4950152],[130.8031944,37.4944171],[130.803035,37.4942961],[130.8029167,37.4939597],[130.8029679,37.4937488],[130.8029577,37.4934907],[130.80305,37.4933069],[130.8031543,37.4927623],[130.8030624,37.4925149],[130.8030611,37.4923205],[130.8028954,37.4921737],[130.8027387,37.4920836],[130.8024503,37.4917333],[130.8023586,37.4912559],[130.8024283,37.4907817],[130.8021011,37.4904643],[130.8017525,37.4900414],[130.801708,37.4898383],[130.8018042,37.489616],[130.8018058,37.4892109],[130.8016601,37.4891301],[130.8021445,37.4883745],[130.8017093,37.4880361],[130.8018809,37.4873465],[130.8023711,37.4866408],[130.8016234,37.4862569],[130.8018702,37.4858738],[130.8018916,37.4853204],[130.8017522,37.4848351],[130.8020526,37.4837113],[130.8029645,37.4834219],[130.8041554,37.4832601],[130.8051639,37.4827918],[130.8060008,37.4824002],[130.807181,37.4818042],[130.8082217,37.4810806],[130.8089083,37.4799823],[130.8089941,37.4791479],[130.8088117,37.4781347],[130.8085435,37.4781092],[130.8085328,37.4778963],[130.8087152,37.4778452],[130.8089298,37.476815],[130.8094877,37.4755548],[130.8101099,37.4747885],[130.8108717,37.4743372],[130.8123093,37.4736305],[130.8130389,37.4733921],[130.8137899,37.4733921],[130.8163219,37.4727109],[130.8173436,37.472465],[130.8174285,37.4724611],[130.8184999,37.4724125],[130.8197122,37.4728131],[130.8201092,37.4728642],[130.8211821,37.4728301],[130.8240878,37.4722566],[130.8241639,37.4722382],[130.8255916,37.4718935],[130.828095,37.4711512],[130.8281814,37.4711206],[130.829011,37.4708271],[130.8298599,37.47041],[130.8299797,37.4700372],[130.8307093,37.4692197],[130.8307052,37.46916],[130.8306664,37.4685981],[130.830205,37.4686237],[130.8300656,37.4683938],[130.8298081,37.4682745],[130.8299154,37.4681553],[130.8299475,37.4678147],[130.8303874,37.4677721],[130.8305846,37.467872],[130.8306878,37.4680787],[130.830999,37.4680446],[130.8311384,37.4675167],[130.8314174,37.4671335],[130.8315679,37.4668349],[130.8316963,37.46658],[130.8324474,37.4664097],[130.8327263,37.4661031],[130.8338099,37.4657795],[130.8347661,37.4653632],[130.8349863,37.465561],[130.8349707,37.4658271],[130.8345824,37.4659158],[130.8338207,37.4661286],[130.83278,37.4664778],[130.832673,37.4667049],[130.8326941,37.466861],[130.833017,37.4667343],[130.8332735,37.4671079],[130.8334344,37.4671335],[130.834164,37.4669121],[130.8340245,37.46658],[130.8342713,37.4665374],[130.8343249,37.4666907],[130.8346468,37.4666566],[130.8347112,37.4665374],[130.8352423,37.4664074],[130.8357626,37.4664267],[130.8363527,37.4662001],[130.8368569,37.4658732],[130.8377412,37.465502],[130.8386594,37.4651408],[130.8391207,37.4647576],[130.8395069,37.4644596],[130.8399146,37.4635739],[130.8403438,37.4630374],[130.8409768,37.4626712],[130.8422857,37.4625605],[130.8428329,37.4627053],[130.843777,37.4635654],[130.8449138,37.4640991],[130.8453668,37.4641134],[130.845204,37.4638379],[130.8455151,37.4636846],[130.8462332,37.463669],[130.8468991,37.4633355],[130.8477467,37.4633184],[130.8481633,37.4631934],[130.8485943,37.463378],[130.848959,37.4633866],[130.8492809,37.4635143],[130.8495169,37.4634121],[130.8498925,37.4634206],[130.8499461,37.4638805],[130.8503431,37.4637953],[130.8503538,37.4635654],[130.8506401,37.4636699],[130.8510619,37.4634973],[130.8512765,37.4630119],[130.8521026,37.4627564],[130.8525317,37.4624413],[130.8526927,37.4622028],[130.8532613,37.4621177],[130.8533793,37.4619644],[130.85382,37.46182],[130.8539158,37.4614194],[130.8543771,37.4611809],[130.8546346,37.4608658],[130.8549779,37.4603463],[130.8552461,37.4604059],[130.8555358,37.4602952],[130.8556538,37.4600568],[130.8562654,37.4598098],[130.8565155,37.4599262],[130.8568447,37.4596182],[130.8568776,37.4597431],[130.8567542,37.4600284],[130.8565155,37.4602328],[130.8563083,37.4604826],[130.8569198,37.4606955],[130.8570593,37.4605422],[130.8571592,37.4606054],[130.8577201,37.4604285],[130.8576275,37.4602918],[130.8576185,37.4602269],[130.857609,37.4601058],[130.8574339,37.4599854],[130.8574456,37.4595287],[130.8576661,37.459445],[130.8576876,37.4592917],[130.8577674,37.4593414],[130.8580786,37.4594351],[130.8579746,37.460077],[130.8579907,37.4601391],[130.8582696,37.4601987],[130.8583823,37.4601349],[130.8584863,37.4601504],[130.858717,37.460193],[130.8590549,37.46021],[130.8591735,37.460105],[130.8593076,37.4602136],[130.8595839,37.460203],[130.8597019,37.4602264],[130.8598199,37.4602732],[130.8600527,37.4602271],[130.8601472,37.4600582],[130.8606213,37.4602271],[130.8607587,37.4601817],[130.8611584,37.4602988],[130.8617076,37.4603144],[130.8617881,37.4600994],[130.8619067,37.4600646],[130.8617806,37.4599177],[130.8618826,37.4598112],[130.8621964,37.4596409],[130.8619201,37.4596154],[130.8619603,37.4594663],[130.8622688,37.4594344],[130.8623037,37.4596281],[130.8622339,37.4597495],[130.8621776,37.45989],[130.8622366,37.4599581],[130.8619818,37.4600199],[130.861955,37.4601029],[130.8621615,37.4601157],[130.862177,37.4602101],[130.862241,37.4603347],[130.8629,37.4604009],[130.8632821,37.4604074],[130.8636609,37.4603575],[130.8647208,37.4600528],[130.8655724,37.4598317],[130.8665993,37.4595438],[130.8675608,37.4591967],[130.8685387,37.458843],[130.8690237,37.458673],[130.8697038,37.4582933],[130.8705133,37.4575614],[130.8711463,37.4567694],[130.8712387,37.4566241],[130.871687,37.455919],[130.872316,37.4545795],[130.8724321,37.4543323],[130.872659,37.4537885],[130.8732062,37.4534989],[130.874086,37.4532179],[130.8749336,37.4534904],[130.8754378,37.453814],[130.8756417,37.4540879],[130.8757168,37.4541888],[130.8758429,37.455115],[130.8866523,37.4611904],[130.8853397,37.4625394],[130.8883692,37.4646599],[130.8880796,37.4649331],[130.8878099,37.4647326],[130.8878682,37.4646803],[130.8823753,37.4608381],[130.8818084,37.4604676],[130.8817571,37.4603463],[130.8793112,37.4595804],[130.8766115,37.4586703],[130.8761935,37.4594919],[130.8771437,37.4615812],[130.8780925,37.4613059],[130.8799654,37.4607636],[130.8801613,37.4611495],[130.8802443,37.4613129],[130.8779323,37.4633695],[130.8819313,37.4662578],[130.8821522,37.4660507],[130.8823986,37.4662409],[130.8837958,37.465045],[130.8838858,37.4651014],[130.8843073,37.464735],[130.8842366,37.4646835],[130.8842056,37.4646139],[130.8844104,37.4644525],[130.8844914,37.4644468],[130.8847132,37.4646035],[130.8847084,37.4646568],[130.8825081,37.46666],[130.882332,37.4668203],[130.8813864,37.4676812],[130.8813125,37.4678332],[130.8816719,37.4683654],[130.8821477,37.4690008],[130.8830124,37.469075],[130.88361,37.4687276],[130.8837114,37.46884],[130.8830797,37.4692163],[130.8839526,37.4700244],[130.8838814,37.4700968],[130.8838921,37.4702841],[130.8847221,37.4708161],[130.8852161,37.471026],[130.8857568,37.4711618],[130.8865193,37.4715123],[130.8869598,37.4715638],[130.887482,37.4717135],[130.8879062,37.4721249],[130.8885969,37.4726038],[130.8888175,37.472438],[130.8889047,37.4725133],[130.8887181,37.4726623],[130.8888418,37.4729447],[130.8895355,37.4735539],[130.8900612,37.4738689],[130.8912414,37.474218],[130.8926576,37.4745416],[130.8936876,37.4746438],[130.8942669,37.4746949],[130.8944493,37.4747545],[130.8947068,37.4747374],[130.8948999,37.4746523],[130.89549,37.474499],[130.8958119,37.4745671],[130.8959192,37.4747289],[130.8957035,37.4748809],[130.8949701,37.474847],[130.8950431,37.4750619],[130.8957368,37.4755719],[130.896359,37.4757677],[130.897035,37.4758784],[130.897668,37.4755974],[130.8986979,37.4754356],[130.8989018,37.4753249],[130.8997279,37.4752568],[130.9001571,37.4753931],[130.9006184,37.4755293],[130.9009584,37.4751983],[130.9012085,37.4747374],[130.9015518,37.4746097],[130.9018737,37.4745331],[130.9021741,37.4746863],[130.9021051,37.4755975],[130.9019327,37.475823],[130.9021848,37.4758784],[130.9024262,37.4756442],[130.9028017,37.4753547],[130.9029626,37.4753675],[130.9029465,37.4758486],[130.9029358,37.4759976],[130.9036493,37.4761849],[130.9037619,37.4761168],[130.9037512,37.475938],[130.9038639,37.4758103],[130.904057,37.4758103],[130.9041428,37.4758954],[130.9044325,37.4757592],[130.9047597,37.4759593],[130.9049797,37.4762062],[130.9048509,37.4765766],[130.9053069,37.4766362],[130.905863,37.4770267],[130.9061276,37.4769555],[130.9064871,37.4768575],[130.9066587,37.4767596],[130.9070611,37.4768831],[130.9071523,37.4771172],[130.9073668,37.4774365],[130.9073959,37.4775519],[130.9071362,37.4776494],[130.9072407,37.4777854],[130.9075385,37.4777005],[130.9078121,37.4777899],[130.9081447,37.4782794],[130.9081876,37.4785354],[130.9080535,37.4787392],[130.9083056,37.4786328],[130.9084665,37.4785562],[130.9087103,37.4790154],[130.9086543,37.4793224],[130.9091264,37.4795566],[130.9091699,37.4798734],[130.9091532,37.4800121],[130.9093624,37.4800291],[130.9098023,37.4797992],[130.9099632,37.4798886],[130.9097755,37.4801355],[130.9095233,37.4802419],[130.9095555,37.4803399],[130.9089654,37.4803399],[130.9088742,37.480408],[130.9086918,37.480408],[130.908252,37.480591],[130.9080106,37.4806676],[130.9083646,37.4807272],[130.9086221,37.4807358],[130.908859,37.4810096],[130.9088507,37.4810462],[130.9088551,37.4810787],[130.9088379,37.4810995],[130.908791,37.4811033],[130.9087722,37.4811301],[130.9087713,37.4811709],[130.9087431,37.4812041],[130.9087193,37.4812172],[130.9086613,37.4812354],[130.908574,37.4812782],[130.9085029,37.4812976],[130.9084034,37.4813365],[130.9083595,37.481375],[130.9082588,37.4814886],[130.9086168,37.4819609],[130.9089238,37.482279],[130.9090589,37.4821956],[130.9090619,37.4821403],[130.9089461,37.4819698],[130.9092271,37.481681],[130.909978,37.4809345],[130.9100906,37.4810091],[130.9099436,37.4812195],[130.9099273,37.4812782],[130.9100643,37.481462],[130.91008,37.4815951],[130.9102149,37.4816556],[130.9103439,37.4816636],[130.910385,37.4816692],[130.9104011,37.4816871],[130.910398,37.4817175],[130.9104136,37.4817314],[130.9104179,37.4817551],[130.9104416,37.4817815],[130.9104358,37.4818095],[130.9104759,37.4818516],[130.9104747,37.4818703],[130.9104583,37.4818786],[130.910452,37.4818948],[130.9104358,37.4819155],[130.9103948,37.4819189],[130.9103951,37.4819947],[130.9104621,37.4819964],[130.9105066,37.4820061],[130.9105344,37.4820364],[130.9105291,37.4820636],[130.9105091,37.4820861],[130.9104774,37.4821103],[130.9104953,37.4821697],[130.9105443,37.4821691],[130.9105824,37.4821758],[130.9106077,37.4821909],[130.9106391,37.4823108],[130.9106703,37.4824257],[130.9107205,37.4825053],[130.9108383,37.4824677],[130.9107843,37.482349],[130.9108463,37.4823347],[130.9109049,37.4824118],[130.9110087,37.4824178],[130.9110785,37.4824964],[130.9111316,37.4825086],[130.9112866,37.4826505],[130.911197,37.4826961],[130.9109878,37.482762],[130.9110488,37.482795],[130.9110803,37.4828408],[130.9111246,37.4828259],[130.9112131,37.4828259],[130.9112775,37.4829706],[130.9111648,37.4830983],[130.9110522,37.4831047],[130.9110468,37.4831984],[130.9111487,37.4833793],[130.9112909,37.4834453],[130.9113794,37.4832516],[130.9116986,37.4830153],[130.9118998,37.4830047],[130.9119594,37.483024],[130.9120419,37.483043],[130.9120419,37.4829174],[130.912345,37.4827408],[130.912624,37.4825279],[130.9128727,37.4825284],[130.9128922,37.4823066],[130.913214,37.4821448],[130.914008,37.482281],[130.9143298,37.4823917],[130.9145773,37.4826669],[130.9150487,37.4825705],[130.9154564,37.4826514],[130.9159177,37.48243],[130.9159606,37.4824768],[130.9159302,37.4826466],[130.9159342,37.4827754],[130.9166365,37.4829025],[130.9171193,37.4833665],[130.9175056,37.4840306],[130.917983,37.48432],[130.9181976,37.4842264],[130.9183585,37.4840774],[130.9184658,37.4841838],[130.9184336,37.4844052],[130.9186214,37.4845669],[130.9192812,37.4847372],[130.9195387,37.48475],[130.9198713,37.4850522],[130.9200483,37.4852948],[130.9202522,37.4855375],[130.9204614,37.4859206],[130.9205097,37.4861675],[130.9207403,37.4862569],[130.9208067,37.4865531],[130.9206545,37.486972],[130.9203541,37.4872018],[130.9198552,37.4871763],[130.9196138,37.487321],[130.9194529,37.4875594],[130.9191846,37.4876317],[130.918793,37.4875551],[130.9182083,37.4875381],[130.9178705,37.4874437],[130.9177899,37.4872061],[130.9177953,37.4868017],[130.917468,37.4865165],[130.9170603,37.4864016],[130.9165024,37.4865165],[130.9157139,37.4865633],[130.9151452,37.4866272],[130.914936,37.4867379],[130.9145015,37.4865931],[130.9142869,37.4864143],[130.91389,37.4864527],[130.9135305,37.486691],[130.9134393,37.4869975],[130.9133278,37.4872568],[130.913349,37.4874144],[130.9136432,37.4874955],[130.9137129,37.4876913],[130.9134984,37.4880191],[130.9132087,37.4881298],[130.9132194,37.4882277],[130.9134769,37.4883511],[130.9135079,37.4885636],[130.913096,37.488747],[130.9132623,37.4890023],[130.9134554,37.4891854],[130.9132087,37.4895727],[130.9135091,37.4895046],[130.9136325,37.4895387],[130.9138149,37.4898536],[130.9138425,37.4904417],[130.9137129,37.4906496],[130.914126,37.4912497],[130.9141669,37.4916747],[130.9140616,37.4923223],[130.9141582,37.4926799],[130.9139436,37.4928586],[130.9137718,37.4932905],[130.9133863,37.4951201],[130.9137055,37.4963502],[130.913727,37.4965183],[130.9137028,37.4966374],[130.9136438,37.4967247],[130.9135178,37.4967715],[130.9133998,37.4967673],[130.9132764,37.4967268],[130.9131637,37.4966311],[130.9131289,37.4964991],[130.9132013,37.4963906],[130.9133086,37.4963033],[130.9130001,37.4951265],[130.9130001,37.495001],[130.9134427,37.4929931],[130.9133086,37.492975],[130.9136076,37.4916524],[130.9131449,37.4913831],[130.9121659,37.4914023],[130.9121659,37.4917162],[130.9120439,37.4917173],[130.9120533,37.491431],[130.9116241,37.4915023],[130.9106947,37.4921493],[130.910228,37.4938114],[130.9102991,37.4938167],[130.9102515,37.4940309],[130.9099598,37.4953425],[130.9101704,37.4961235],[130.9108999,37.4962321],[130.9108731,37.4963523],[130.9101422,37.4962427],[130.9100282,37.4963565],[130.9099826,37.4964502],[130.9100135,37.4965832],[130.9100389,37.4967853],[130.9100901,37.4968928],[130.910228,37.4970439],[130.9107712,37.496995],[130.9108664,37.4970428],[130.9109482,37.4973631],[130.9106599,37.4975259],[130.9109133,37.497844],[130.9111628,37.4980207],[130.9119192,37.4982462],[130.9121418,37.4983782],[130.912286,37.4985023],[130.9127976,37.4989804],[130.9126756,37.4990655],[130.9130209,37.4996726],[130.9145746,37.4997624],[130.9142017,37.4981026],[130.9140395,37.4980153],[130.9139013,37.497894],[130.9138544,37.4977727],[130.9138839,37.4976366],[130.9139805,37.4975514],[130.9141146,37.4975078],[130.914309,37.497495],[130.9144364,37.497561],[130.9145343,37.4976717],[130.9146389,37.4979589],[130.9150627,37.5001273]]]}},{"type":"Feature","properties":{"name":"죽도","osm_ways":["510021205"]},"geometry":{"type":"Polygon","coordinates":[[[130.9379929,37.5320098],[130.9379044,37.5320544],[130.9377113,37.5320864],[130.9375986,37.5320842],[130.9373975,37.5320906],[130.937258,37.5320119],[130.9370461,37.5318694],[130.9367353,37.5317047],[130.9366763,37.53156],[130.936451,37.5315047],[130.9364242,37.5314367],[130.9363867,37.5312793],[130.9363062,37.5311431],[130.9362096,37.5310836],[130.9361047,37.531025],[130.9360255,37.5309867],[130.9359625,37.5309643],[130.9359384,37.5308484],[130.9358525,37.5307857],[130.9358069,37.5307431],[130.9357493,37.5306687],[130.9356514,37.5305932],[130.9355642,37.5305198],[130.9356272,37.5305177],[130.9357238,37.5304464],[130.9357908,37.5303996],[130.9358552,37.5303634],[130.9357291,37.5299657],[130.9357479,37.5297551],[130.9356138,37.5294573],[130.9354556,37.5292021],[130.9354502,37.5290893],[130.9354877,37.5288957],[130.9355682,37.5287639],[130.9356031,37.5285894],[130.9355924,37.5284746],[130.9356514,37.5284023],[130.9357134,37.5283906],[130.935743,37.528195],[130.9358717,37.5281099],[130.9359146,37.528027],[130.9359682,37.5279801],[130.9360406,37.5278908],[130.9360218,37.5278078],[130.9360219,37.5277759],[130.9360487,37.527761],[130.9360835,37.5277376],[130.9361372,37.5276994],[130.9361641,37.5276313],[130.9361908,37.5275717],[130.9362203,37.5275398],[130.936223,37.52751],[130.9362553,37.527508],[130.9363089,37.5274951],[130.9363518,37.5275058],[130.9364081,37.527493],[130.9364939,37.5275079],[130.9365261,37.5275122],[130.9365865,37.527493],[130.9366354,37.5274904],[130.9366844,37.5274973],[130.9367192,37.5275377],[130.9367219,37.5275972],[130.9367219,37.527644],[130.9367005,37.5276823],[130.9366871,37.5277015],[130.9367488,37.5277504],[130.9368078,37.5276802],[130.9367702,37.5275206],[130.9368172,37.5274835],[130.9368516,37.5275307],[130.9369261,37.527428],[130.9369505,37.5273834],[130.9369721,37.5273494],[130.936966,37.5272957],[130.9369895,37.5272478],[130.9369499,37.5271867],[130.937084,37.5268293],[130.9370619,37.5267964],[130.9370646,37.5267831],[130.9370813,37.5267549],[130.9371142,37.526715],[130.9371296,37.5266709],[130.937194,37.5266836],[130.9372054,37.5266756],[130.9373067,37.526548],[130.9373563,37.5264438],[130.937422,37.5264246],[130.937422,37.5263874],[130.9374381,37.5263704],[130.9374448,37.5263279],[130.9374649,37.526297],[130.937418,37.5263066],[130.9373804,37.5263353],[130.9373536,37.526363],[130.9373174,37.5263513],[130.9372946,37.5263406],[130.9372758,37.526364],[130.9372731,37.5263853],[130.9372342,37.5263959],[130.9372088,37.5263661],[130.9371953,37.5263108],[130.9371819,37.5262608],[130.9371632,37.5262226],[130.9371524,37.5261821],[130.9371766,37.5261247],[130.937194,37.5261066],[130.9372114,37.526096],[130.9372423,37.5260843],[130.9372906,37.5260747],[130.9372906,37.5260237],[130.9372745,37.5259832],[130.9372704,37.5259588],[130.9372973,37.5259471],[130.9373295,37.5259726],[130.9373657,37.5260024],[130.9373965,37.5260226],[130.9374153,37.5260322],[130.9374595,37.5260279],[130.9374797,37.5260088],[130.9374917,37.525962],[130.9375239,37.5259269],[130.93754,37.5259184],[130.9375655,37.525945],[130.9375776,37.5259705],[130.9376272,37.5259737],[130.9376553,37.5259758],[130.9376795,37.5260066],[130.9377063,37.526013],[130.9377519,37.5259896],[130.9377546,37.5259184],[130.937776,37.5258822],[130.9377881,37.5257961],[130.9378015,37.5257588],[130.9378364,37.5257439],[130.9378619,37.525745],[130.9378793,37.5257429],[130.9378994,37.5257344],[130.9379155,37.5257067],[130.9379236,37.5256748],[130.9379356,37.5256472],[130.9379531,37.5256227],[130.9379732,37.5256035],[130.9380215,37.5255897],[130.9380402,37.5255759],[130.9380604,37.5255653],[130.9381328,37.5255546],[130.9381636,37.5255674],[130.9381703,37.5255887],[130.9382146,37.525595],[130.9382521,37.525594],[130.9382897,37.5255908],[130.9383152,37.5256057],[130.9383393,37.5256248],[130.9383634,37.5256535],[130.9383634,37.5256706],[130.9383862,37.5256557],[130.9384144,37.5256184],[130.9384278,37.5256004],[130.9385056,37.5256078],[130.9385445,37.5256376],[130.9385727,37.5256652],[130.9386008,37.5256737],[130.9386491,37.5256971],[130.938684,37.5257301],[130.9387202,37.5257556],[130.9387443,37.525779],[130.9387926,37.5258237],[130.9388288,37.5258641],[130.9388597,37.5258854],[130.938924,37.5259024],[130.9389428,37.5259162],[130.9389871,37.5259673],[130.93903,37.5259886],[130.9390514,37.5260258],[130.9390622,37.5260481],[130.9390769,37.5260673],[130.9391104,37.5260885],[130.9391319,37.5261034],[130.9391547,37.5261215],[130.9391802,37.526163],[130.9391922,37.5261938],[130.9392472,37.5262002],[130.93927,37.5262034],[130.9392861,37.5262343],[130.9392901,37.5262534],[130.9393599,37.5262502],[130.9394001,37.5262598],[130.9394296,37.526264],[130.9394524,37.5262821],[130.9394779,37.5264012],[130.9395034,37.5264034],[130.9395315,37.5264449],[130.9395584,37.526481],[130.9395678,37.5264927],[130.9396174,37.5265161],[130.9396522,37.5265416],[130.9396844,37.5265672],[130.939722,37.5265831],[130.9397488,37.5266086],[130.9397622,37.5266203],[130.939777,37.5266671],[130.9397796,37.5267171],[130.9398051,37.5267533],[130.939832,37.5267873],[130.9398655,37.5268182],[130.9399003,37.5268405],[130.9399057,37.5268554],[130.9398896,37.5268852],[130.9398883,37.5269054],[130.9398936,37.5269277],[130.939891,37.5269628],[130.9398641,37.5270032],[130.9398413,37.5270054],[130.9398092,37.5270171],[130.9397796,37.5270383],[130.9397609,37.5270639],[130.9397314,37.5270968],[130.9397072,37.527117],[130.9396469,37.5271245],[130.9395543,37.5271149],[130.9395396,37.5270979],[130.9395181,37.5270819],[130.9394819,37.5270777],[130.9394538,37.5270777],[130.9393867,37.5270936],[130.9393652,37.5270936],[130.9393706,37.5271192],[130.9393934,37.5271309],[130.9394082,37.5271436],[130.9394068,37.5271723],[130.9394001,37.5271862],[130.9393639,37.5271968],[130.939321,37.5272074],[130.9393022,37.5272223],[130.9393532,37.527251],[130.939388,37.5272649],[130.93938,37.5272968],[130.9393813,37.527317],[130.9393988,37.5273212],[130.9394162,37.5273149],[130.9394564,37.5273095],[130.9394806,37.5273149],[130.9395128,37.5273383],[130.939549,37.5273415],[130.9395999,37.5273649],[130.9396724,37.5274212],[130.9397005,37.5274489],[130.9397314,37.5274797],[130.9397582,37.5275084],[130.9397931,37.5275478],[130.9398346,37.5275871],[130.9398668,37.5276116],[130.9398775,37.5276318],[130.9398856,37.5276563],[130.9399057,37.5276754],[130.9399111,37.5277041],[130.9398708,37.5277137],[130.9398789,37.5277626],[130.9398789,37.5278052],[130.9399044,37.5278328],[130.939899,37.5278626],[130.9399231,37.5278828],[130.9399473,37.527903],[130.939958,37.5279349],[130.9399701,37.5279562],[130.9399728,37.5279892],[130.939962,37.5280041],[130.9399433,37.528036],[130.9399205,37.5280509],[130.9398896,37.5280626],[130.9398735,37.5280796],[130.939844,37.5280743],[130.9398293,37.5280636],[130.9397864,37.5280647],[130.9397515,37.5280636],[130.9397381,37.528036],[130.9397247,37.5280221],[130.9396992,37.5280179],[130.9396657,37.5280743],[130.9396563,37.5280934],[130.9396603,37.5281179],[130.9396925,37.5281732],[130.9397461,37.5282019],[130.9397649,37.5282412],[130.9397716,37.5282561],[130.9397944,37.5282753],[130.9398172,37.5282955],[130.939832,37.5282934],[130.9398534,37.5283423],[130.9398762,37.5283784],[130.9398816,37.5284178],[130.9399191,37.528488],[130.9399527,37.5285156],[130.9399647,37.5285497],[130.9399848,37.528588],[130.9400036,37.5286252],[130.9400157,37.5286667],[130.9400224,37.5286943],[130.9400304,37.5287188],[130.9400412,37.5287475],[130.9400586,37.5288241],[130.9400747,37.5288624],[130.9400747,37.5288975],[130.9400291,37.5289187],[130.9400479,37.5289496],[130.9400734,37.5289804],[130.9400693,37.5289996],[130.9400237,37.5289974],[130.9399982,37.5289964],[130.9399741,37.5290081],[130.9399527,37.5290325],[130.9399486,37.5290676],[130.9399486,37.5290995],[130.9399486,37.5291208],[130.9399325,37.5291506],[130.9399084,37.5291782],[130.9399057,37.5292335],[130.9398252,37.5292825],[130.9397528,37.5293271],[130.9397139,37.5293473],[130.9396737,37.5293622],[130.9396201,37.5293899],[130.9396026,37.5294165],[130.9395798,37.5294569],[130.9395678,37.5294813],[130.9395141,37.5295728],[130.9394752,37.529609],[130.9394403,37.5296845],[130.9394202,37.5297302],[130.9394095,37.5297568],[130.9393424,37.529844],[130.9393143,37.5299248],[130.9393156,37.5299748],[130.9393371,37.5300184],[130.9393411,37.5300514],[130.939321,37.530095],[130.9392942,37.5301418],[130.9393666,37.5301833],[130.9394122,37.5302131],[130.9394283,37.5302301],[130.9394739,37.5302641],[130.9395275,37.5303067],[130.9395745,37.5303364],[130.9395986,37.5303545],[130.9396147,37.530362],[130.9396536,37.5303694],[130.9396844,37.5303737],[130.9397032,37.5303822],[130.9397381,37.5303928],[130.9397649,37.5304034],[130.9397837,37.5304173],[130.9397904,37.5304449],[130.9398024,37.5304619],[130.9398293,37.5304694],[130.9398963,37.5305162],[130.9399419,37.5305268],[130.9399607,37.5305449],[130.9399956,37.530614],[130.940021,37.5306374],[130.9400599,37.5306427],[130.9401136,37.5306555],[130.9401511,37.5306672],[130.940194,37.5306842],[130.9402101,37.5307023],[130.9402088,37.5307353],[130.9402075,37.5307821],[130.9402571,37.5308554],[130.9403054,37.5308959],[130.9403174,37.5309161],[130.9403067,37.5309543],[130.940237,37.5309777],[130.9401833,37.5310086],[130.9401793,37.5310373],[130.9401538,37.531065],[130.9401109,37.531066],[130.9400801,37.5310745],[130.9400465,37.5311298],[130.9400425,37.5311681],[130.9400438,37.5311926],[130.9399956,37.5312341],[130.939958,37.5312543],[130.9399218,37.5312745],[130.9398708,37.5313106],[130.9398413,37.5313829],[130.9398239,37.531417],[130.9398199,37.531434],[130.939844,37.5314638],[130.9398534,37.5315042],[130.9398024,37.5315201],[130.9398078,37.5315595],[130.9398333,37.531585],[130.9398306,37.5316042],[130.9398132,37.5316361],[130.9398051,37.531652],[130.9398038,37.5316818],[130.9398038,37.5316978],[130.9398159,37.5317275],[130.9398387,37.5317679],[130.9397689,37.5317318],[130.9397099,37.5317009],[130.9396817,37.5316914],[130.9395691,37.5316861],[130.9395061,37.5316775],[130.9394296,37.531669],[130.939388,37.5316616],[130.9393156,37.5316744],[130.9391601,37.5316658],[130.939097,37.531668],[130.9390219,37.5317031],[130.9389736,37.5317137],[130.938912,37.5317148],[130.9388395,37.5317265],[130.9387939,37.531752],[130.9387027,37.5317637],[130.9386411,37.5318009],[130.9386102,37.5318594],[130.9385727,37.5319051],[130.9384935,37.5319339],[130.938464,37.531937],[130.9384292,37.5319487],[130.9383926,37.531972],[130.9383383,37.5319837],[130.938294,37.5319954],[130.9382598,37.5319912],[130.9382209,37.5319981],[130.9381619,37.5319991],[130.9380613,37.5320023],[130.9379929,37.5320098]]]}},{"type":"Feature","properties":{"name":"관음도","osm_ways":["975337179"]},"geometry":{"type":"Polygon","coordinates":[[[130.9225509,37.5450401],[130.9223062,37.5448879],[130.9221216,37.5446382],[130.9219688,37.5443722],[130.9219038,37.5442175],[130.921859,37.5440434],[130.9217371,37.5439273],[130.9212086,37.5436888],[130.920802,37.5437017],[130.9202247,37.5436824],[130.9200133,37.5436405],[130.9193588,37.543547],[130.9191718,37.5433955],[130.919062,37.5434277],[130.9188018,37.5433246],[130.9187042,37.5431569],[130.9187042,37.5428958],[130.9187774,37.5426637],[130.9190864,37.542509],[130.9191596,37.5424864],[130.9192246,37.542393],[130.9196759,37.5422801],[130.9200499,37.5423285],[130.9201637,37.5423833],[130.9203101,37.5423897],[130.9204483,37.5423382],[130.9205256,37.5422834],[130.9206394,37.5418836],[130.9206882,37.5418159],[130.9208386,37.5417354],[130.9210703,37.5417063],[130.9214322,37.5416193],[130.9216883,37.5416096],[130.9217981,37.5416419],[130.9219688,37.5417128],[130.9220867,37.5418063],[130.9222534,37.5419578],[130.9222493,37.542019],[130.9222087,37.5421286],[130.9223062,37.5421963],[130.9225054,37.5423575],[130.9224526,37.5424574],[130.9223469,37.5424284],[130.9220379,37.5424284],[130.9219647,37.5424961],[130.9220908,37.5425477],[130.9221802,37.5425412],[130.9222574,37.5425058],[130.9222859,37.5425606],[130.9222615,37.5427121],[130.9224119,37.5427153],[130.9226477,37.5427798],[130.9230665,37.5430441],[130.9231234,37.5431634],[130.9231519,37.543244],[130.9232494,37.5432988],[130.9235055,37.543331],[130.9235381,37.5434051],[130.9236072,37.5435695],[130.9238105,37.5437275],[130.9238748,37.543883],[130.9239799,37.5439997],[130.924099,37.544307],[130.9235339,37.5441885],[130.9234242,37.5442292],[130.9232233,37.5442774],[130.9230716,37.5443625],[130.9231837,37.544431],[130.9233074,37.5445069],[130.9232327,37.5446384],[130.9229828,37.5447032],[130.9229361,37.5447976],[130.9229431,37.5448957],[130.9231416,37.5450438],[130.9229688,37.5452845],[130.9229081,37.5452864],[130.922879,37.5451153],[130.9225509,37.5450401]]]}},{"type":"Feature","properties":{"name":"","osm_ways":["456181723"]},"geometry":{"type":"Polygon","coordinates":[[[130.9205087,37.5016449],[130.9202635,37.5016841],[130.9200429,37.5017942],[130.9198552,37.501858],[130.9197318,37.5017899],[130.9197533,37.5016665],[130.9198927,37.5015473],[130.9199786,37.5013856],[130.9201288,37.5013218],[130.9200767,37.5011565],[130.920305,37.5010737],[130.9204406,37.5010929],[130.9205097,37.5011856],[130.9205955,37.5012622],[130.9207671,37.5013133],[130.9208154,37.5014026],[130.920794,37.501492],[130.9207076,37.5015116],[130.9206813,37.5015176],[130.9207618,37.5016708],[130.9207725,37.5017601],[130.920633,37.5017133],[130.9205087,37.5016449]]]}},{"type":"Feature","properties":{"name":"","osm_ways":["456181722"]},"geometry":{"type":"Polygon","coordinates":[[[130.846851,37.5406032],[130.8468562,37.5406882],[130.8467366,37.5407921],[130.8466943,37.5406907],[130.8465874,37.5406479],[130.8465526,37.5405705],[130.8466041,37.5405223],[130.846629,37.5402059],[130.8466577,37.5400753],[130.8468605,37.5399502],[130.8470626,37.5398676],[130.847134,37.5398962],[130.8471715,37.5398223],[130.8473998,37.5397537],[130.8474587,37.5398563],[130.8475721,37.5399677],[130.8474946,37.5402501],[130.847294,37.5403874],[130.8472232,37.5404866],[130.8470766,37.5405027],[130.846851,37.5406032]]]}},{"type":"Feature","properties":{"name":"삼선암","osm_ways":["975337177"]},"geometry":{"type":"Polygon","coordinates":[[[130.907961,37.5496875],[130.9078431,37.5496456],[130.9077334,37.5496585],[130.9074955,37.5496569],[130.9074346,37.549586],[130.9073817,37.5493829],[130.9074305,37.5493313],[130.9075789,37.5492749],[130.9077029,37.5492153],[130.9077842,37.5491734],[130.9080363,37.549196],[130.9081155,37.5492201],[130.9082009,37.5492781],[130.9081826,37.5493942],[130.9081481,37.5495263],[130.9081542,37.5496375],[130.9082395,37.5496665],[130.9082456,37.5497487],[130.9081298,37.5497487],[130.907961,37.5496875]]]}},{"type":"Feature","properties":{"name":"","osm_ways":["456181721"]},"geometry":{"type":"Polygon","coordinates":[[[130.8931942,37.5477621],[130.8927781,37.5475604],[130.8927672,37.5471873],[130.8928614,37.547013],[130.8927931,37.5469106],[130.8929746,37.5467959],[130.8931469,37.5466836],[130.8931547,37.5466894],[130.8933872,37.5468599],[130.8934431,37.5470069],[130.8933324,37.5470585],[130.8935052,37.5471491],[130.8936446,37.5472767],[130.8936125,37.5476084],[130.8935289,37.5477269],[130.8931942,37.5477621]]]}},{"type":"Feature","properties":{"name":"삼선암","osm_ways":["975337176"]},"geometry":{"type":"Polygon","coordinates":[[[130.9083622,37.5495041],[130.9083073,37.5494267],[130.9082666,37.5493816],[130.9082646,37.5493026],[130.908289,37.5492462],[130.90835,37.5492253],[130.9084882,37.549214],[130.9085675,37.549214],[130.9086935,37.549243],[130.9087931,37.5493316],[130.9088622,37.5493832],[130.9088643,37.5494815],[130.9088053,37.5496217],[130.9086407,37.5496153],[130.908476,37.549554],[130.9083622,37.5495041]]]}},{"type":"Feature","properties":{"name":"작은구멍바위","osm_ways":["904369812"]},"geometry":{"type":"Polygon","coordinates":[[[130.8458929,37.5387991],[130.8458812,37.5387324],[130.8459069,37.5386658],[130.8459746,37.5386361],[130.846068,37.5386176],[130.8461288,37.5385954],[130.8462478,37.5386121],[130.8462712,37.5387065],[130.8463062,37.5387546],[130.8462945,37.5388176],[130.8462455,37.5388231],[130.8461731,37.5388287],[130.8460984,37.5388083],[130.846019,37.5387843],[130.8458929,37.5387991]]]}},{"type":"Feature","properties":{"name":"","osm_ways":["955315908"]},"geometry":{"type":"Polygon","coordinates":[[[130.9098705,37.5433607],[130.9098217,37.5432882],[130.9097709,37.5432479],[130.9097241,37.5432028],[130.9097302,37.5431463],[130.9098054,37.5431528],[130.9098847,37.543206],[130.9099254,37.5432592],[130.9100351,37.5433059],[130.9100717,37.543372],[130.9100433,37.5434461],[130.9099254,37.5434107],[130.9098705,37.5433607]]]}},{"type":"Feature","properties":{"name":"","osm_ways":["904369813"]},"geometry":{"type":"Polygon","coordinates":[[[130.8461778,37.5383751],[130.8461801,37.5382899],[130.8462151,37.5382399],[130.8462548,37.5381844],[130.8464183,37.5382029],[130.846416,37.5382455],[130.8464197,37.5382649],[130.8464253,37.5382936],[130.846451,37.5383658],[130.8463716,37.5384121],[130.8461778,37.5383751]]]}},{"type":"Feature","properties":{"name":"","osm_ways":["904369824"]},"geometry":{"type":"Polygon","coordinates":[[[130.8022439,37.4969977],[130.8021738,37.4968718],[130.8021271,37.4968532],[130.8020851,37.4968607],[130.8020337,37.4968792],[130.8020337,37.4967421],[130.8021038,37.4967347],[130.8022205,37.4967532],[130.8022999,37.4968421],[130.802342,37.4969199],[130.8022439,37.4969977]]]}},{"type":"Feature","properties":{"name":"일선암","osm_ways":["960157810"]},"geometry":{"type":"Polygon","coordinates":[[[130.905394,37.5511653],[130.9053123,37.5511044],[130.9052264,37.5510811],[130.9050787,37.5508805],[130.9053418,37.5508897],[130.9054908,37.550945],[130.9055456,37.5510237],[130.9056556,37.5511045],[130.9056153,37.5511959],[130.9055215,37.5512427],[130.905394,37.5511653]]]}},{"type":"Feature","properties":{"name":"","osm_ways":["975337173"]},"geometry":{"type":"Polygon","coordinates":[[[130.9182894,37.5134428],[130.9180802,37.5132619],[130.9179756,37.5132151],[130.9178683,37.5130556],[130.9178629,37.5129619],[130.9180266,37.5129428],[130.9181822,37.5131285],[130.9184208,37.5133194],[130.9184396,37.5134279],[130.9182894,37.5134428]]]}},{"type":"Feature","properties":{"name":"소북저바위","osm_ways":["904369832"]},"geometry":{"type":"Polygon","coordinates":[[[130.9193398,37.5038636],[130.9192701,37.5037955],[130.9192862,37.5036445],[130.9193693,37.5036274],[130.9193908,37.5036806],[130.9193881,37.5037934],[130.9194176,37.5038275],[130.9193398,37.5038636]]]}},{"type":"Feature","properties":{"name":"","osm_ways":["975337167"]},"geometry":{"type":"Polygon","coordinates":[[[130.9166485,37.5093437],[130.916332,37.5091522],[130.916163,37.5090288],[130.9162489,37.5089543],[130.9164527,37.508982],[130.9168014,37.5091522],[130.916788,37.5092841],[130.9166485,37.5093437]]]}},{"type":"Feature","properties":{"name":"","osm_ways":["975337172"]},"geometry":{"type":"Polygon","coordinates":[[[130.9179972,37.5125668],[130.9179007,37.5125072],[130.9178899,37.5124561],[130.9179463,37.5124242],[130.9180668,37.5125109],[130.9180722,37.5125726],[130.9179972,37.5125668]]]}},{"type":"Feature","properties":{"name":"","osm_ways":["975337174"]},"geometry":{"type":"Polygon","coordinates":[[[130.9178267,37.5129731],[130.9177416,37.5129375],[130.9176404,37.512888],[130.9176807,37.5128455],[130.9177772,37.5128646],[130.9178448,37.5129428],[130.9178267,37.5129731]]]}},{"type":"Feature","properties":{"name":"","osm_ways":["904369821"]},"geometry":{"type":"Polygon","coordinates":[[[130.7918878,37.5187365],[130.7920357,37.5186632],[130.7925348,37.5186876],[130.7925595,37.5187756],[130.7921774,37.5188733],[130.7918878,37.5187365]]]}},{"type":"Feature","properties":{"name":"","osm_ways":["975337169"]},"geometry":{"type":"Polygon","coordinates":[[[130.9163669,37.5086969],[130.9163427,37.5086075],[130.9164205,37.5086054],[130.9166619,37.5087032],[130.9166109,37.5087522],[130.9163669,37.5086969]]]}},{"type":"Feature","properties":{"name":"","osm_ways":["975337180"]},"geometry":{"type":"Polygon","coordinates":[[[130.9230316,37.5428308],[130.9229994,37.5428117],[130.9230986,37.5428053],[130.9231603,37.5428542],[130.9231845,37.5428819],[130.9230316,37.5428308]]]}},{"type":"Feature","properties":{"name":"","osm_ways":["975337181"]},"geometry":{"type":"Polygon","coordinates":[[[130.923847,37.5429095],[130.9238148,37.542867],[130.9238309,37.5428521],[130.9239113,37.5428542],[130.923906,37.5428968],[130.923847,37.5429095]]]}},{"type":"Feature","properties":{"name":"","osm_ways":["707528119"]},"geometry":{"type":"Polygon","coordinates":[[[130.8595759,37.4601072],[130.8595249,37.4600731],[130.8595517,37.4599752],[130.8596295,37.4600156],[130.8595759,37.4601072]]]}},{"type":"Feature","properties":{"name":"","osm_ways":["707528122"]},"geometry":{"type":"Polygon","coordinates":[[[130.8623654,37.4598858],[130.86236,37.4597729],[130.8624458,37.4597623],[130.8624378,37.4598687],[130.8623654,37.4598858]]]}},{"type":"Feature","properties":{"name":"","osm_ways":["975337168"]},"geometry":{"type":"Polygon","coordinates":[[[130.9165144,37.5088118],[130.9163266,37.5087394],[130.9164151,37.508733],[130.9165224,37.5087543],[130.9165144,37.5088118]]]}},{"type":"Feature","properties":{"name":"","osm_ways":["975337170"]},"geometry":{"type":"Polygon","coordinates":[[[130.9158653,37.508416],[130.9158572,37.5083458],[130.9160584,37.508399],[130.9160209,37.5084756],[130.9158653,37.508416]]]}},{"type":"Feature","properties":{"name":"","osm_ways":["975337182"]},"geometry":{"type":"Polygon","coordinates":[[[130.9230799,37.5427777],[130.9230369,37.5427543],[130.9230745,37.5427415],[130.9231013,37.5427649],[130.9230799,37.5427777]]]}},{"type":"Feature","properties":{"name":"","osm_ways":["707528121"]},"geometry":{"type":"Polygon","coordinates":[[[130.8627006,37.4600539],[130.8627677,37.4599496],[130.8627757,37.4600582],[130.8627006,37.4600539]]]}},{"type":"Feature","properties":{"name":"저동항","osm_id":"node/1982766421","kind":"place"},"geometry":{"type":"Point","coordinates":[130.9100543,37.4954263]}},{"type":"Feature","properties":{"name":"도동항","osm_id":"node/4516199324","kind":"place"},"geometry":{"type":"Point","coordinates":[130.9093141,37.4808592]}},{"type":"Feature","properties":{"name":"현포항","osm_id":"node/4518431444","kind":"place"},"geometry":{"type":"Point","coordinates":[130.8274089,37.5276403]}},{"type":"Feature","properties":{"name":"사동항","osm_id":"node/4518437243","kind":"place"},"geometry":{"type":"Point","coordinates":[130.8777357,37.4599874]}},{"type":"Feature","properties":{"name":"천부항","osm_id":"node/4622755575","kind":"place"},"geometry":{"type":"Point","coordinates":[130.8720102,37.540499]}},{"type":"Feature","properties":{"name":"남양항","osm_id":"node/4624081758","kind":"place"},"geometry":{"type":"Point","coordinates":[130.8336217,37.4665104]}},{"type":"Feature","properties":{"name":"송곳산","osm_id":"node/4624106230","kind":"peak"},"geometry":{"type":"Point","coordinates":[130.8518599,37.5323621]}},{"type":"Feature","properties":{"name":"알봉","osm_id":"node/4627426087","kind":"peak"},"geometry":{"type":"Point","coordinates":[130.85735,37.51942]}},{"type":"Feature","properties":{"name":"섬목","osm_id":"node/4744225221","kind":"place"},"geometry":{"type":"Point","coordinates":[130.9128112,37.5385538]}},{"type":"Feature","properties":{"name":"성인봉","osm_id":"node/6392077595","kind":"peak"},"geometry":{"type":"Point","coordinates":[130.8670471,37.4980056]}},{"type":"Feature","properties":{"name":"태하령","osm_id":"node/7972724249","kind":"peak"},"geometry":{"type":"Point","coordinates":[130.8221495,37.4932897]}},{"type":"Feature","properties":{"name":"망향봉","osm_id":"node/9105618817","kind":"peak"},"geometry":{"type":"Point","coordinates":[130.9038784,37.4796085]}},{"type":"Feature","properties":{"name":"천두산","osm_id":"node/9466731183","kind":"peak"},"geometry":{"type":"Point","coordinates":[130.8785194,37.5064601]}},{"type":"Feature","properties":{"name":"말잔등","osm_id":"node/9466731184","kind":"peak"},"geometry":{"type":"Point","coordinates":[130.8755084,37.5063864]}},{"type":"Feature","properties":{"name":"두리봉","osm_id":"node/9466731185","kind":"peak"},"geometry":{"type":"Point","coordinates":[130.8721539,37.4759984]}},{"type":"Feature","properties":{"name":"벼락산","osm_id":"node/9467473812","kind":"peak"},"geometry":{"type":"Point","coordinates":[130.8636568,37.4729679]}},{"type":"Feature","properties":{"name":"투구봉","osm_id":"node/9467474210","kind":"peak"},"geometry":{"type":"Point","coordinates":[130.832785,37.4683482]}},{"type":"Feature","properties":{"name":"비파산","osm_id":"node/9467474211","kind":"peak"},"geometry":{"type":"Point","coordinates":[130.8380323,37.4699197]}},{"type":"Feature","properties":{"name":"비파산","osm_id":"node/9467474212","kind":"peak"},"geometry":{"type":"Point","coordinates":[130.8413019,37.4801104]}},{"type":"Feature","properties":{"name":"대등","osm_id":"node/9467474213","kind":"peak"},"geometry":{"type":"Point","coordinates":[130.8256937,37.4824638]}},{"type":"Feature","properties":{"name":"탄갓봉","osm_id":"node/9490995735","kind":"peak"},"geometry":{"type":"Point","coordinates":[130.8360309,37.4968482]}},{"type":"Feature","properties":{"name":"미륵산","osm_id":"node/9490995736","kind":"peak"},"geometry":{"type":"Point","coordinates":[130.8486336,37.5106974]}},{"type":"Feature","properties":{"name":"형제봉","osm_id":"node/9490995737","kind":"peak"},"geometry":{"type":"Point","coordinates":[130.8456619,37.5147184]}},{"type":"Feature","properties":{"name":"성인봉난봉","osm_id":"node/9490995738","kind":"peak"},"geometry":{"type":"Point","coordinates":[130.8576318,37.5147859]}},{"type":"Feature","properties":{"name":"관창봉","osm_id":"node/9490995739","kind":"peak"},"geometry":{"type":"Point","coordinates":[130.8788539,37.4875321]}},{"type":"Feature","properties":{"name":"관모봉","osm_id":"node/9490995740","kind":"peak"},"geometry":{"type":"Point","coordinates":[130.8801145,37.489853]}},{"type":"Feature","properties":{"name":"삼각산","osm_id":"node/9490995741","kind":"peak"},"geometry":{"type":"Point","coordinates":[130.8842208,37.4907773]}},{"type":"Feature","properties":{"name":"만물상","osm_id":"node/9490995789","kind":"peak"},"geometry":{"type":"Point","coordinates":[130.8062126,37.5009761]}},{"type":"Feature","properties":{"name":"노인봉","osm_id":"node/9496933651","kind":"peak"},"geometry":{"type":"Point","coordinates":[130.8322631,37.5283133]}},{"type":"Feature","properties":{"name":"석봉","osm_id":"node/9501839437","kind":"peak"},"geometry":{"type":"Point","coordinates":[130.8460884,37.526605]}},{"type":"Feature","properties":{"name":"깃대봉","osm_id":"node/9501839438","kind":"peak"},"geometry":{"type":"Point","coordinates":[130.8504499,37.5231282]}},{"type":"Feature","properties":{"name":"알봉","osm_id":"node/9501839439","kind":"peak"},"geometry":{"type":"Point","coordinates":[130.8499481,37.5177644]}},{"type":"Feature","properties":{"name":"나리봉","osm_id":"node/9506371556","kind":"peak"},"geometry":{"type":"Point","coordinates":[130.883838,37.5210069]}},{"type":"Feature","properties":{"name":"두루봉","osm_id":"node/9508143810","kind":"peak"},"geometry":{"type":"Point","coordinates":[130.9006166,37.5460908]}},{"type":"Feature","properties":{"name":"보루산","osm_id":"node/9508143811","kind":"peak"},"geometry":{"type":"Point","coordinates":[130.9015,37.5463301]}},{"type":"Feature","properties":{"name":"노인봉","osm_id":"node/10245843546","kind":"peak"},"geometry":{"type":"Point","coordinates":[130.818583,37.4975866]}},{"type":"Feature","properties":{"name":"각시봉","osm_id":"node/10245843547","kind":"peak"},"geometry":{"type":"Point","coordinates":[130.8278882,37.4761097]}},{"type":"Feature","properties":{"name":"초봉","osm_id":"node/10245843548","kind":"peak"},"geometry":{"type":"Point","coordinates":[130.8272552,37.5153257]}},{"type":"Feature","properties":{"name":"가두봉","osm_id":"node/10252984876","kind":"peak"},"geometry":{"type":"Point","coordinates":[130.873625,37.4553472]}},{"type":"Feature","properties":{"name":"각시봉","osm_id":"node/10252984938","kind":"peak"},"geometry":{"type":"Point","coordinates":[130.8278694,37.4761139]}},{"type":"Feature","properties":{"name":"줄맨등","osm_id":"node/10252985012","kind":"peak"},"geometry":{"type":"Point","coordinates":[130.89638,37.50287]}},{"type":"Feature","properties":{"name":"형제봉","osm_id":"node/10252985017","kind":"peak"},"geometry":{"type":"Point","coordinates":[130.85005,37.50029]}},{"type":"Feature","properties":{"name":"노인봉","osm_id":"node/10252985029","kind":"peak"},"geometry":{"type":"Point","coordinates":[130.8185806,37.4975917]}},{"type":"Feature","properties":{"name":"두리봉","osm_id":"node/10252985053","kind":"peak"},"geometry":{"type":"Point","coordinates":[130.8618,37.4881]}},{"type":"Feature","properties":{"name":"대풍감","osm_id":"node/10252985376","kind":"peak"},"geometry":{"type":"Point","coordinates":[130.7948889,37.5223889]}},{"type":"Feature","properties":{"name":"초봉","osm_id":"node/10252985386","kind":"peak"},"geometry":{"type":"Point","coordinates":[130.8272444,37.5152972]}},{"type":"Feature","properties":{"name":"감을계","osm_id":"node/13058549618","kind":"place"},"geometry":{"type":"Point","coordinates":[130.8649679,37.4632631]}},{"type":"Feature","properties":{"name":"안석문동","osm_id":"node/13058549624","kind":"place"},"geometry":{"type":"Point","coordinates":[130.854186,37.4830478]}},{"type":"Feature","properties":{"name":"큰골","osm_id":"node/13058549625","kind":"place"},"geometry":{"type":"Point","coordinates":[130.8529284,37.4857171]}},{"type":"Feature","properties":{"name":"나팔등","osm_id":"node/13058549626","kind":"place"},"geometry":{"type":"Point","coordinates":[130.8349222,37.4874785]}},{"type":"Feature","properties":{"name":"가사목골","osm_id":"node/13058549627","kind":"place"},"geometry":{"type":"Point","coordinates":[130.8365738,37.4904109]}},{"type":"Feature","properties":{"name":"큰골","osm_id":"node/13058549628","kind":"place"},"geometry":{"type":"Point","coordinates":[130.8388513,37.49124]}},{"type":"Feature","properties":{"name":"외막골","osm_id":"node/13058549629","kind":"place"},"geometry":{"type":"Point","coordinates":[130.83309,37.4912814]}},{"type":"Feature","properties":{"name":"깨밭골","osm_id":"node/13058549630","kind":"place"},"geometry":{"type":"Point","coordinates":[130.8333525,37.4931613]}},{"type":"Feature","properties":{"name":"사다리골","osm_id":"node/13058549631","kind":"place"},"geometry":{"type":"Point","coordinates":[130.8310268,37.4806647]}},{"type":"Feature","properties":{"name":"도사골","osm_id":"node/13058549632","kind":"place"},"geometry":{"type":"Point","coordinates":[130.8310364,37.4782288]}},{"type":"Feature","properties":{"name":"나리분지 내 농경지","osm_id":"way/467376969","note":"분지 전체 경계가 아님"},"geometry":{"type":"Polygon","coordinates":[[[130.8738495,37.5176699],[130.8740426,37.5161041],[130.8736349,37.5158147],[130.8734418,37.516019],[130.8722401,37.516087],[130.8720331,37.5165306],[130.8711673,37.5164955],[130.87089,37.5165506],[130.870726,37.5165945],[130.8705819,37.5167271],[130.870395,37.5174223],[130.8706308,37.5179762],[130.8706166,37.5180738],[130.8701158,37.5180613],[130.8692783,37.5180489],[130.8693436,37.5188609],[130.8688927,37.5189123],[130.8687211,37.5194058],[130.8681846,37.5197973],[130.868013,37.5200866],[130.865481,37.5208014],[130.8647085,37.521329],[130.8639789,37.5215332],[130.8633996,37.5224862],[130.8637644,37.5231329],[130.8643008,37.5237456],[130.8646441,37.5234563],[130.8645368,37.5225883],[130.8651806,37.5220267],[130.8664214,37.5208261],[130.8671761,37.522248],[130.8681632,37.5228606],[130.8681632,37.5235924],[130.8673693,37.5237115],[130.8671761,37.5242051],[130.866983,37.5244433],[130.8671332,37.5246986],[130.8676911,37.52509],[130.8685923,37.5253963],[130.8692575,37.525073],[130.8704806,37.5249368],[130.8709312,37.5248858],[130.8735276,37.5233882],[130.8754159,37.5219927],[130.8751584,37.5216523],[130.8755875,37.5209546],[130.8761025,37.5208354],[130.8760596,37.5202568],[130.8753944,37.5198313],[130.8747292,37.5197632],[130.8744503,37.5190314],[130.8746434,37.5190825],[130.8746434,37.5188102],[130.8744932,37.518657],[130.8746863,37.5182315],[130.8738495,37.5176699]]]}}]}